ONEWEB-0710             
1 55173U 23004AK  23260.58334491  .00069312  00000+0  17734+0 0  9991
2 55173  87.9198 205.3149 0002147  75.5259  59.2766 13.17570368  5265
ONEWEB-0711             
1 55174U 23004AL  23260.64317150  .00001014  00000+0  28245-2 0  9999
2 55174  87.8954 220.4114 0000901  94.3253 265.7978 13.11415557 34313
ONEWEB-0713             
1 55175U 23004AM  23260.43440000  .00000245  00000+0  65646-3 0  9990
2 55175  87.8951 220.4616 0001347  95.4911 264.6371 13.11412788 34268
ONEWEB-0715             
1 55176U 23004AN  23260.42912990  .00001266  00000+0  35359-2 0  9993
2 55176  87.8934 220.4785 0001899  87.2602 272.8743 13.11411336 34302
ONEWEB-0716             
1 55177U 23004AP  23260.91667824  .00000013  00000+0  00000+0 0  9992
2 55177  87.9308 205.2540 0002818  78.9427 212.7739 13.22206293 35454
ONEWEB-0717             
1 55178U 23004AQ  23260.91667824  .00000013  00000+0  00000+0 0  9993
2 55178  87.9317 205.2041 0002007  64.9785 312.8029 13.20960175 35518
ONEWEB-0719             
1 55179U 23004AR  23260.91667824  .00000013  00000+0  00000+0 0  9994
2 55179  87.9256 205.1902 0005023 120.7664 213.2346 13.18212978 35451
ONEWEB-0530             
1 55796U 23029A   23260.91667824 -.01142800  00000+0 -68828+0 0  9992
2 55796  87.1549 116.4345 0003072 111.9801  79.3843 14.09969118 29200
